{"type": "FeatureCollection", "features": [ {"type": "Feature", "properties": {"norad_id": 31444, "name": "FENGYUN 1C DEB", "group": "fengyun-1c-debris", "lat": 77.88610780211611, "lon": 153.09690553235143, "alt_km": 612.3868647888012, "timestamp": "2025-12-10T04:57:29.900774+00:00", "meta": {"OBJECT_NAME": "FENGYUN 1C DEB", "OBJECT_ID": "1999-025BUG", "EPOCH": "2025-12-08T13:18:21.037824", "MEAN_MOTION": 14.69793542, "ECCENTRICITY": 0.0062632, "INCLINATION": 98.9278, "RA_OF_ASC_NODE": 284.2035, "ARG_OF_PERICENTER": 85.0243, "MEAN_ANOMALY": 275.8106, "EPHEMERIS_TYPE": 0, "CLASSIFICATION_TYPE": "U", "NORAD_CAT_ID": 31444, "ELEMENT_SET_NO": 999, "REV_AT_EPOCH": 97427, "BSTAR": 0.0020662, "MEAN_MOTION_DOT": 0.0001267, "MEAN_MOTION_DDOT": 0}, "tle": {"line1": "1 31444U 99025BUG 25342.55441016  .00012670  00000+0  20662-2 0  9996", "line2": "2 31444  98.9278 284.2035 0062632  85.0243 275.8106 14.69793542974274"}}, "geometry": {"type": "Point", "coordinates": [153.09690553235143, 77.88610780211611]}}, {"type": "Feature", "properties": {"norad_id": 31447, "name": "FENGYUN 1C DEB", "group": "fengyun-1c-debris", "lat": -13.950217941438522, "lon": -156.85412458224516, "alt_km": 978.5013927074451, "timestamp": "2025-12-10T04:57:29.900784+00:00", "meta": {"OBJECT_NAME": "FENGYUN 1C DEB", "OBJECT_ID": "1999-025BUK", "EPOCH": "2025-12-08T20:00:32.884416", "MEAN_MOTION": 14.24029872, "ECCENTRICITY": 0.02304586, "INCLINATION": 98.9916, "RA_OF_ASC_NODE": 23.9949, "ARG_OF_PERICENTER": 6.4135, "MEAN_ANOMALY": 353.9906, "EPHEMERIS_TYPE": 0, "CLASSIFICATION_TYPE": "U", "NORAD_CAT_ID": 31447, "ELEMENT_SET_NO": 999, "REV_AT_EPOCH": 64796, "BSTAR": 0.00031342384, "MEAN_MOTION_DOT": 8.95e-06, "MEAN_MOTION_DDOT": 0}, "tle": {"line1": "1 31447U 99025BUK 25342.83371394  .00000895  00000+0  31342-3 0  9995", "line2": "2 31447  98.9916  23.9949 0230458   6.4135 353.9906 14.24029872647966"}}, "geometry": {"type": "Point", "coordinates": [-156.85412458224516, -13.950217941438522]}}, {"type": "Feature", "properties": {"norad_id": 31448, "name": "FENGYUN 1C DEB", "group": "fengyun-1c-debris", "lat": 5.0251449367254075, "lon": 176.31974196061716, "alt_km": 767.4806096474867, "timestamp": "2025-12-10T04:57:29.900795+00:00", "meta": {"OBJECT_NAME": "FENGYUN 1C DEB", "OBJECT_ID": "1999-025BUL", "EPOCH": "2025-12-08T18:30:03.962016", "MEAN_MOTION": 14.27794903, "ECCENTRICITY": 0.00587895, "INCLINATION": 98.5002, "RA_OF_ASC_NODE": 354.1694, "ARG_OF_PERICENTER": 215.8716, "MEAN_ANOMALY": 143.8511, "EPHEMERIS_TYPE": 0, "CLASSIFICATION_TYPE": "U", "NORAD_CAT_ID": 31448, "ELEMENT_SET_NO": 999, "REV_AT_EPOCH": 64247, "BSTAR": 0.0012322494, "MEAN_MOTION_DOT": 3.059e-05, "MEAN_MOTION_DDOT": 0}, "tle": {"line1": "1 31448U 99025BUL 25342.77087919  .00003059  00000+0  12322-2 0  9997", "line2": "2 31448  98.5002 354.1694 0058789 215.8716 143.8511 14.27794903642477"}}, "geometry": {"type": "Point", "coordinates": [176.31974196061716, 5.0251449367254075]}}, {"type": "Feature", "properties": {"norad_id": 31449, "name": "FENGYUN 1C DEB", "group": "fengyun-1c-debris", "lat": 72.96069250839528, "lon": -107.83291382183451, "alt_km": 874.3343790602203, "timestamp": "2025-12-10T04:57:29.900805+00:00", "meta": {"OBJECT_NAME": "FENGYUN 1C DEB", "OBJECT_ID": "1999-025BUM", "EPOCH": "2025-12-08T22:18:49.231872", "MEAN_MOTION": 14.33700462, "ECCENTRICITY": 0.0144054, "INCLINATION": 98.5555, "RA_OF_ASC_NODE": 41.4858, "ARG_OF_PERICENTER": 280.1106, "MEAN_ANOMALY": 78.3855, "EPHEMERIS_TYPE": 0, "CLASSIFICATION_TYPE": "U", "NORAD_CAT_ID": 31449, "ELEMENT_SET_NO": 999, "REV_AT_EPOCH": 97582, "BSTAR": 0.00033284, "MEAN_MOTION_DOT": 9.89e-06, "MEAN_MOTION_DDOT": 0}, "tle": {"line1": "1 31449U 99025BUM 25342.92973648  .00000989  00000+0  33284-3 0  9998", "line2": "2 31449  98.5555  41.4858 0144054 280.1106  78.3855 14.33700462975823"}}, "geometry": {"type": "Point", "coordinates": [-107.83291382183451, 72.96069250839528]}}, {"type": "Feature", "properties": {"norad_id": 31451, "name": "FENGYUN 1C DEB", "group": "fengyun-1c-debris", "lat": 57.86973955592755, "lon": 12.110813946921764, "alt_km": 862.4196507219449, "timestamp": "2025-12-10T04:57:29.900816+00:00", "meta": {"OBJECT_NAME": "FENGYUN 1C DEB", "OBJECT_ID": "1999-025BUP", "EPOCH": "2025-12-08T21:13:27.598080", "MEAN_MOTION": 14.13614333, "ECCENTRICITY": 0.0030996, "INCLINATION": 98.7644, "RA_OF_ASC_NODE": 25.0348, "ARG_OF_PERICENTER": 222.5718, "MEAN_ANOMALY": 311.389, "EPHEMERIS_TYPE": 0, "CLASSIFICATION_TYPE": "U", "NORAD_CAT_ID": 31451, "ELEMENT_SET_NO": 999, "REV_AT_EPOCH": 95955, "BSTAR": 0.00049786, "MEAN_MOTION_DOT": 9e-06, "MEAN_MOTION_DDOT": 0}, "tle": {"line1": "1 31451U 99025BUP 25342.88434720  .00000900  00000+0  49786-3 0  9996", "line2": "2 31451  98.7644  25.0348 0030996 222.5718 311.3890 14.13614333959557"}}, "geometry": {"type": "Point", "coordinates": [12.110813946921764, 57.86973955592755]}}, {"type": "Feature", "properties": {"norad_id": 31452, "name": "FENGYUN 1C DEB", "group": "fengyun-1c-debris", "lat": -56.505287181491184, "lon": -15.46628996073834, "alt_km": 877.4577083144159, "timestamp": "2025-12-10T04:57:29.900826+00:00", "meta": {"OBJECT_NAME": "FENGYUN 1C DEB", "OBJECT_ID": "1999-025BUQ", "EPOCH": "2025-12-08T05:43:08.652576", "MEAN_MOTION": 14.15158689, "ECCENTRICITY": 0.00406418, "INCLINATION": 98.6574, "RA_OF_ASC_NODE": 329.3128, "ARG_OF_PERICENTER": 140.4779, "MEAN_ANOMALY": 219.9371, "EPHEMERIS_TYPE": 0, "CLASSIFICATION_TYPE": "U", "NORAD_CAT_ID": 31452, "ELEMENT_SET_NO": 999, "REV_AT_EPOCH": 96142, "BSTAR": 0.00062348352, "MEAN_MOTION_DOT": 1.178e-05, "MEAN_MOTION_DDOT": 0}, "tle": {"line1": "1 31452U 99025BUQ 25342.23829459  .00001178  00000+0  62348-3 0  9990", "line2": "2 31452  98.6574 329.3128 0040641 140.4779 219.9371 14.15158689961423"}}, "geometry": {"type": "Point", "coordinates": [-15.46628996073834, -56.505287181491184]}}, {"type": "Feature", "properties": {"norad_id": 31455, "name": "FENGYUN 1C DEB", "group": "fengyun-1c-debris", "lat": -46.73930387223161, "lon": -18.22760689086318, "alt_km": 900.8972419794027, "timestamp": "2025-12-10T04:57:29.900836+00:00", "meta": {"OBJECT_NAME": "FENGYUN 1C DEB", "OBJECT_ID": "1999-025BUT", "EPOCH": "2025-12-01T05:06:27.684288", "MEAN_MOTION": 14.11407074, "ECCENTRICITY": 0.0218887, "INCLINATION": 98.5737, "RA_OF_ASC_NODE": 323.9486, "ARG_OF_PERICENTER": 84.0104, "MEAN_ANOMALY": 278.5966, "EPHEMERIS_TYPE": 0, "CLASSIFICATION_TYPE": "U", "NORAD_CAT_ID": 31455, "ELEMENT_SET_NO": 999, "REV_AT_EPOCH": 95941, "BSTAR": 0.00026567, "MEAN_MOTION_DOT": 5.62e-06, "MEAN_MOTION_DDOT": 0}, "tle": {"line1": "1 31455U 99025BUT 25335.21282042  .00000562  00000+0  26567-3 0  9993", "line2": "2 31455  98.5737 323.9486 0218887  84.0104 278.5966 14.11407074959415"}}, "geometry": {"type": "Point", "coordinates": [-18.22760689086318, -46.73930387223161]}}, {"type": "Feature", "properties": {"norad_id": 31456, "name": "FENGYUN 1C DEB", "group": "fengyun-1c-debris", "lat": 15.748648443173847, "lon": 84.09857353851703, "alt_km": 722.6882228161403, "timestamp": "2025-12-10T04:57:29.900846+00:00", "meta": {"OBJECT_NAME": "FENGYUN 1C DEB", "OBJECT_ID": "1999-025BUU", "EPOCH": "2025-12-08T12:55:41.925216", "MEAN_MOTION": 14.42364551, "ECCENTRICITY": 0.0067565, "INCLINATION": 98.5774, "RA_OF_ASC_NODE": 84.8613, "ARG_OF_PERICENTER": 327.2292, "MEAN_ANOMALY": 32.4714, "EPHEMERIS_TYPE": 0, "CLASSIFICATION_TYPE": "U", "NORAD_CAT_ID": 31456, "ELEMENT_SET_NO": 999, "REV_AT_EPOCH": 97406, "BSTAR": 0.0013396, "MEAN_MOTION_DOT": 4.506e-05, "MEAN_MOTION_DDOT": 0}, "tle": {"line1": "1 31456U 99025BUU 25342.53867969  .00004506  00000+0  13396-2 0  9991", "line2": "2 31456  98.5774  84.8613 0067565 327.2292  32.4714 14.42364551974069"}}, "geometry": {"type": "Point", "coordinates": [84.09857353851703, 15.748648443173847]}}, {"type": "Feature", "properties": {"norad_id": 31459, "name": "FENGYUN 1C DEB", "group": "fengyun-1c-debris", "lat": -55.91909213938207, "lon": -95.16466709051271, "alt_km": 816.381737322693, "timestamp": "2025-12-10T04:57:29.900856+00:00", "meta": {"OBJECT_NAME": "FENGYUN 1C DEB", "OBJECT_ID": "1999-025BUX", "EPOCH": "2025-12-08T23:17:29.370912", "MEAN_MOTION": 14.44022338, "ECCENTRICITY": 0.0093801, "INCLINATION": 98.1755, "RA_OF_ASC_NODE": 251.3793, "ARG_OF_PERICENTER": 143.1676, "MEAN_ANOMALY": 217.6008, "EPHEMERIS_TYPE": 0, "CLASSIFICATION_TYPE": "U", "NORAD_CAT_ID": 31459, "ELEMENT_SET_NO": 999, "REV_AT_EPOCH": 64503, "BSTAR": 0.0015164, "MEAN_MOTION_DOT": 5.43e-05, "MEAN_MOTION_DDOT": 0}, "tle": {"line1": "1 31459U 99025BUX 25342.97047883  .00005430  00000+0  15164-2 0  9999", "line2": "2 31459  98.1755 251.3793 0093801 143.1676 217.6008 14.44022338645031"}}, "geometry": {"type": "Point", "coordinates": [-95.16466709051271, -55.91909213938207]}}, {"type": "Feature", "properties": {"norad_id": 31462, "name": "FENGYUN 1C DEB", "group": "fengyun-1c-debris", "lat": 45.49533833536075, "lon": -6.2700742979331245, "alt_km": 867.4712392508427, "timestamp": "2025-12-10T04:57:29.900867+00:00", "meta": {"OBJECT_NAME": "FENGYUN 1C DEB", "OBJECT_ID": "1999-025BVA", "EPOCH": "2025-12-09T20:49:55.104096", "MEAN_MOTION": 14.13005543, "ECCENTRICITY": 0.0031947, "INCLINATION": 98.6905, "RA_OF_ASC_NODE": 2.3538, "ARG_OF_PERICENTER": 212.6442, "MEAN_ANOMALY": 272.282, "EPHEMERIS_TYPE": 0, "CLASSIFICATION_TYPE": "U", "NORAD_CAT_ID": 31462, "ELEMENT_SET_NO": 999, "REV_AT_EPOCH": 95815, "BSTAR": 0.00053446, "MEAN_MOTION_DOT": 9.59e-06, "MEAN_MOTION_DDOT": 0}, "tle": {"line1": "1 31462U 99025BVA 25343.86799889  .00000959  00000+0  53446-3 0  9999", "line2": "2 31462  98.6905   2.3538 0031947 212.6442 272.2820 14.13005543958158"}}, "geometry": {"type": "Point", "coordinates": [-6.2700742979331245, 45.49533833536075]}}]}